start=new Date('2022-09-22T00:00:00.000Z').valueOf();
sats=[{"OBJECT_TYPE":"PAYLOAD","RCS_SIZE":"LARGE","ELEMENT_SET_NO":"999","TIME_SYSTEM":"UTC","SITE":"AFETR","TLE_LINE2":"2 47362  53.0569 340.8478 0001673  76.2488 283.8687 15.06362164 92364","BSTAR":"0.00065181000000","ARG_OF_PERICENTER":"76.2488","OBJECT_ID":"2021-005P","GP_ID":"213190471","CLASSIFICATION_TYPE":"U","DECAY_DATE":null,"OBJECT_NAME":"STARLINK-2076","PERIAPSIS":"546.171","LAUNCH_DATE":"2021-01-20","PERIOD":"95.595","EPOCH":"2022-09-21T14:19:45.892416","INCLINATION":"53.0569","COUNTRY_CODE":"US","MEAN_ANOMALY":"283.8687","SEMIMAJOR_AXIS":"6925.465","MEAN_ELEMENT_THEORY":"SGP4","NORAD_CAT_ID":"47362","FILE":"3579752","MEAN_MOTION":"15.06362164","RA_OF_ASC_NODE":"340.8478","MEAN_MOTION_DOT":"0.00009431","CENTER_NAME":"EARTH","EPHEMERIS_TYPE":"0","REF_FRAME":"TEME","MEAN_MOTION_DDOT":"0.0000000000000","ECCENTRICITY":"0.00016730","REV_AT_EPOCH":"9236","TLE_LINE1":"1 47362U 21005P   22264.59705894  .00009431  00000-0  65181-3 0  9994","APOAPSIS":"548.488"},{"ELEMENT_SET_NO":"999","SITE":"AFETR","TIME_SYSTEM":"UTC","TLE_LINE2":"2 47363  53.0561 340.2158 0001864  48.3462 311.7686 15.06397027 92388","OBJECT_TYPE":"PAYLOAD","RCS_SIZE":"LARGE","PERIAPSIS":"545.932","OBJECT_ID":"2021-005Q","GP_ID":"213189227","BSTAR":"0.00003547600000","ARG_OF_PERICENTER":"48.3462","OBJECT_NAME":"STARLINK-2077","DECAY_DATE":null,"CLASSIFICATION_TYPE":"U","RA_OF_ASC_NODE":"340.2158","MEAN_MOTION_DOT":"0.00000247","CENTER_NAME":"EARTH","FILE":"3579752","NORAD_CAT_ID":"47363","MEAN_MOTION":"15.06397027","REF_FRAME":"TEME","EPHEMERIS_TYPE":"0","PERIOD":"95.592","EPOCH":"2022-09-21T17:36:08.587872","LAUNCH_DATE":"2021-01-20","MEAN_ANOMALY":"311.7686","SEMIMAJOR_AXIS":"6925.358","MEAN_ELEMENT_THEORY":"SGP4","INCLINATION":"53.0561","COUNTRY_CODE":"US","ECCENTRICITY":"0.00018640","TLE_LINE1":"1 47363U 21005Q   22264.73343273  .00000247  00000-0  35476-4 0  9991","REV_AT_EPOCH":"9238","MEAN_MOTION_DDOT":"0.0000000000000","APOAPSIS":"548.514"},{"MEAN_MOTION_DDOT":"0.0000000000000","REV_AT_EPOCH":"9237","TLE_LINE1":"1 47366U 21005T   22264.69288489  .00000931  00000-0  81414-4 0  9999","ECCENTRICITY":"0.00013210","APOAPSIS":"548.137","MEAN_MOTION":"15.06397248","FILE":"3579752","NORAD_CAT_ID":"47366","CENTER_NAME":"EARTH","MEAN_MOTION_DOT":"0.00000931","RA_OF_ASC_NODE":"340.4186","EPHEMERIS_TYPE":"0","REF_FRAME":"TEME","LAUNCH_DATE":"2021-01-20","EPOCH":"2022-09-21T16:37:45.254496","PERIOD":"95.592","COUNTRY_CODE":"US","INCLINATION":"53.0558","SEMIMAJOR_AXIS":"6925.357","MEAN_ANOMALY":"282.2964","MEAN_ELEMENT_THEORY":"SGP4","PERIAPSIS":"546.307","ARG_OF_PERICENTER":"77.8173","BSTAR":"0.00008141400000","GP_ID":"213189978","OBJECT_ID":"2021-005T","CLASSIFICATION_TYPE":"U","DECAY_DATE":null,"OBJECT_NAME":"STARLINK-2081","TIME_SYSTEM":"UTC","SITE":"AFETR","ELEMENT_SET_NO":"999","TLE_LINE2":"2 47366  53.0558 340.4186 0001321  77.8173 282.2964 15.06397248 92379","OBJECT_TYPE":"PAYLOAD","RCS_SIZE":"LARGE"},{"REF_FRAME":"TEME","EPHEMERIS_TYPE":"0","RA_OF_ASC_NODE":"340.2865","MEAN_MOTION_DOT":"0.00004317","CENTER_NAME":"EARTH","NORAD_CAT_ID":"47367","FILE":"3579752","MEAN_MOTION":"15.06398512","MEAN_ELEMENT_THEORY":"SGP4","SEMIMAJOR_AXIS":"6925.353","MEAN_ANOMALY":"287.4644","INCLINATION":"53.0545","COUNTRY_CODE":"US","EPOCH":"2022-09-21T17:14:54.133440","PERIOD":"95.592","LAUNCH_DATE":"2021-01-20","APOAPSIS":"548.153","ECCENTRICITY":"0.00013500","TLE_LINE1":"1 47367U 21005U   22264.71868210  .00004317  00000-0  30856-3 0  9994","REV_AT_EPOCH":"9238","MEAN_MOTION_DDOT":"0.0000000000000","TLE_LINE2":"2 47367  53.0545 340.2865 0001350  72.6492 287.4644 15.06398512 92385","ELEMENT_SET_NO":"999","SITE":"AFETR","TIME_SYSTEM":"UTC","RCS_SIZE":"LARGE","OBJECT_TYPE":"PAYLOAD","PERIAPSIS":"546.283","CLASSIFICATION_TYPE":"U","DECAY_DATE":null,"OBJECT_NAME":"STARLINK-2082","OBJECT_ID":"2021-005U","GP_ID":"213190229","BSTAR":"0.00030856000000","ARG_OF_PERICENTER":"72.6492"},{"CLASSIFICATION_TYPE":"U","DECAY_DATE":null,"OBJECT_NAME":"STARLINK-2084","OBJECT_ID":"2021-005V","GP_ID":"213190972","BSTAR":"0.00001571300000","ARG_OF_PERICENTER":"74.8874","PERIAPSIS":"546.322","RCS_SIZE":"LARGE","OBJECT_TYPE":"PAYLOAD","TLE_LINE2":"2 47368  53.0560 340.9183 0001311  74.8874 285.2260 15.06394551 92365","ELEMENT_SET_NO":"999","TIME_SYSTEM":"UTC","SITE":"AFETR","APOAPSIS":"548.138","ECCENTRICITY":"0.00013110","TLE_LINE1":"1 47368U 21005V   22264.57862506 -.00000047  00000-0  15713-4 0  9994","REV_AT_EPOCH":"9236","MEAN_MOTION_DDOT":"0.0000000000000","SEMIMAJOR_AXIS":"6925.365","MEAN_ANOMALY":"285.2260","MEAN_ELEMENT_THEORY":"SGP4","INCLINATION":"53.0560","COUNTRY_CODE":"US","PERIOD":"95.592","EPOCH":"2022-09-21T13:53:13.205184","LAUNCH_DATE":"2021-01-20","REF_FRAME":"TEME","EPHEMERIS_TYPE":"0","RA_OF_ASC_NODE":"340.9183","MEAN_MOTION_DOT":"-0.00000047","CENTER_NAME":"EARTH","MEAN_MOTION":"15.06394551","FILE":"3579752","NORAD_CAT_ID":"47368"},{"EPHEMERIS_TYPE":"0","REF_FRAME":"TEME","FILE":"3579752","NORAD_CAT_ID":"47369","MEAN_MOTION":"15.06386497","RA_OF_ASC_NODE":"319.6956","MEAN_MOTION_DOT":"-0.00001040","CENTER_NAME":"EARTH","INCLINATION":"53.0559","COUNTRY_CODE":"US","SEMIMAJOR_AXIS":"6925.390","MEAN_ELEMENT_THEORY":"SGP4","MEAN_ANOMALY":"288.5014","LAUNCH_DATE":"2021-01-20","PERIOD":"95.593","EPOCH":"2022-09-21T20:21:59.402880","APOAPSIS":"548.309","MEAN_MOTION_DDOT":"0.0000000000000","ECCENTRICITY":"0.00015220","TLE_LINE1":"1 47369U 21005W   22264.84860420 -.00001040  00000-0 -50981-4 0  9999","REV_AT_EPOCH":"9268","TLE_LINE2":"2 47369  53.0559 319.6956 0001522  71.6140 288.5014 15.06386497 92688","ELEMENT_SET_NO":"999","TIME_SYSTEM":"UTC","SITE":"AFETR","RCS_SIZE":"LARGE","OBJECT_TYPE":"PAYLOAD","PERIAPSIS":"546.201","DECAY_DATE":null,"OBJECT_NAME":"STARLINK-2085","CLASSIFICATION_TYPE":"U","BSTAR":"-0.00005098100000","ARG_OF_PERICENTER":"71.6140","OBJECT_ID":"2021-005W","GP_ID":"213189728"},{"RCS_SIZE":"LARGE","OBJECT_TYPE":"PAYLOAD","TLE_LINE2":"2 47370  53.0554 301.6968 0001485  58.3248 301.7885 15.06396474 92903","ELEMENT_SET_NO":"999","TIME_SYSTEM":"UTC","SITE":"AFETR","OBJECT_NAME":"STARLINK-2086","DECAY_DATE":null,"CLASSIFICATION_TYPE":"U","OBJECT_ID":"2021-005X","GP_ID":"213189478","BSTAR":"0.00000223220000","ARG_OF_PERICENTER":"58.3248","PERIAPSIS":"546.196","MEAN_ELEMENT_THEORY":"SGP4","SEMIMAJOR_AXIS":"6925.359","MEAN_ANOMALY":"301.7885","INCLINATION":"53.0554","COUNTRY_CODE":"US","EPOCH":"2022-09-21T09:49:03.470016","PERIOD":"95.592","LAUNCH_DATE":"2021-01-20","REF_FRAME":"TEME","EPHEMERIS_TYPE":"0","RA_OF_ASC_NODE":"301.6968","CENTER_NAME":"EARTH","MEAN_MOTION_DOT":"-0.00000248","MEAN_MOTION":"15.06396474","FILE":"3579752","NORAD_CAT_ID":"47370","APOAPSIS":"548.253","ECCENTRICITY":"0.00014850","TLE_LINE1":"1 47370U 21005X   22264.40906794 -.00000248  00000-0  22322-5 0  9995","REV_AT_EPOCH":"9290","MEAN_MOTION_DDOT":"0.0000000000000"},{"GP_ID":"213190730","OBJECT_ID":"2021-005Y","ARG_OF_PERICENTER":"71.2017","BSTAR":"-0.00006496700000","DECAY_DATE":null,"OBJECT_NAME":"STARLINK-2088","CLASSIFICATION_TYPE":"U","PERIAPSIS":"546.128","OBJECT_TYPE":"PAYLOAD","RCS_SIZE":"LARGE","TIME_SYSTEM":"UTC","SITE":"AFETR","ELEMENT_SET_NO":"999","TLE_LINE2":"2 47371  53.0547 340.2745 0001577  71.2017 288.9142 15.06397877 92380","TLE_LINE1":"1 47371U 21005Y   22264.72606157 -.00001249  00000-0 -64967-4 0  9994","REV_AT_EPOCH":"9238","ECCENTRICITY":"0.00015770","MEAN_MOTION_DDOT":"0.0000000000000","APOAPSIS":"548.312","EPOCH":"2022-09-21T17:25:31.719648","PERIOD":"95.592","LAUNCH_DATE":"2021-01-20","MEAN_ELEMENT_THEORY":"SGP4","SEMIMAJOR_AXIS":"6925.355","MEAN_ANOMALY":"288.9142","COUNTRY_CODE":"US","INCLINATION":"53.0547","MEAN_MOTION_DOT":"-0.00001249","CENTER_NAME":"EARTH","RA_OF_ASC_NODE":"340.2745","NORAD_CAT_ID":"47371","FILE":"3579752","MEAN_MOTION":"15.06397877","REF_FRAME":"TEME","EPHEMERIS_TYPE":"0"},{"RCS_SIZE":"LARGE","OBJECT_TYPE":"PAYLOAD","TLE_LINE2":"2 47372  53.0564 336.2042 0001074  76.5282 283.5826 15.06395036 92429","ELEMENT_SET_NO":"999","TIME_SYSTEM":"UTC","SITE":"AFETR","DECAY_DATE":null,"CLASSIFICATION_TYPE":"U","OBJECT_NAME":"STARLINK-2089","BSTAR":"-0.00011425000000","ARG_OF_PERICENTER":"76.5282","OBJECT_ID":"2021-005Z","GP_ID":"213190472","PERIAPSIS":"546.485","INCLINATION":"53.0564","COUNTRY_CODE":"US","MEAN_ANOMALY":"283.5826","SEMIMAJOR_AXIS":"6925.364","MEAN_ELEMENT_THEORY":"SGP4","LAUNCH_DATE":"2021-01-20","PERIOD":"95.592","EPOCH":"2022-09-21T14:07:12.665856","EPHEMERIS_TYPE":"0","REF_FRAME":"TEME","MEAN_MOTION":"15.06395036","FILE":"3579752","NORAD_CAT_ID":"47372","RA_OF_ASC_NODE":"336.2042","CENTER_NAME":"EARTH","MEAN_MOTION_DOT":"-0.00001982","APOAPSIS":"547.973","MEAN_MOTION_DDOT":"0.0000000000000","ECCENTRICITY":"0.00010740","REV_AT_EPOCH":"9242","TLE_LINE1":"1 47372U 21005Z   22264.58834104 -.00001982  00000-0 -11425-3 0  9998"},{"BSTAR":"0.00017208000000","ARG_OF_PERICENTER":"64.3171","OBJECT_ID":"2021-005AA","GP_ID":"213189228","DECAY_DATE":null,"CLASSIFICATION_TYPE":"U","OBJECT_NAME":"STARLINK-2092","PERIAPSIS":"546.086","OBJECT_TYPE":"PAYLOAD","RCS_SIZE":"LARGE","ELEMENT_SET_NO":"999","TIME_SYSTEM":"UTC","SITE":"AFETR","TLE_LINE2":"2 47373  53.0558 341.1684 0001615  64.3171 295.7985 15.06403040 92351","MEAN_MOTION_DDOT":"0.0000000000000","ECCENTRICITY":"0.00016150","REV_AT_EPOCH":"9235","TLE_LINE1":"1 47373U 21005AA  22264.52333074  .00002283  00000-0  17208-3 0  9991","APOAPSIS":"548.323","LAUNCH_DATE":"2021-01-20","EPOCH":"2022-09-21T12:33:35.775936","PERIOD":"95.592","INCLINATION":"53.0558","COUNTRY_CODE":"US","MEAN_ANOMALY":"295.7985","SEMIMAJOR_AXIS":"6925.339","MEAN_ELEMENT_THEORY":"SGP4","FILE":"3579752","NORAD_CAT_ID":"47373","MEAN_MOTION":"15.06403040","RA_OF_ASC_NODE":"341.1684","CENTER_NAME":"EARTH","MEAN_MOTION_DOT":"0.00002283","EPHEMERIS_TYPE":"0","REF_FRAME":"TEME"}];
